OBJECT_NAME,OBJECT_ID,EPOCH,MEAN_MOTION,ECCENTRICITY,INCLINATION,RA_OF_ASC_NODE,ARG_OF_PERICENTER,MEAN_ANOMALY,EPHEMERIS_TYPE,CLASSIFICATION_TYPE,NORAD_CAT_ID,ELEMENT_SET_NO,REV_AT_EPOCH,BSTAR,MEAN_MOTION_DOT,MEAN_MOTION_DDOT
FLOCK 4BE-29,2024-149AT,2026-05-13T11:55:02.083296,15.42977404,.0003818,97.3808,218.8800,80.5745,279.5934,0,U,60509,999,9706,.23383E-3,.10213E-3,0
TRANSPORTER-11 OBJECT AU,2024-149AU,2026-05-13T11:35:51.879840,15.39228002,.0004696,97.3730,216.9544,68.9191,291.2556,0,U,60510,999,9697,.24333E-3,.9386E-4,0
FLOCK 4BE-2,2024-149AV,2026-05-13T05:09:25.364160,15.49082723,.0003587,97.3823,219.6194,79.5379,280.6276,0,U,60511,999,9708,.53854E-3,.29203E-3,0
FLOCK 4BE-13,2024-149AW,2026-05-13T05:30:22.599936,15.40926586,.0004682,97.3720,217.3048,52.7691,307.3983,0,U,60512,999,9698,.21315E-3,.8685E-4,0
FLOCK 4BE-27,2024-149AX,2026-05-13T04:01:50.890368,15.33823123,.00053042,97.3828,215.0197,78.3162,281.8675,0,U,60513,999,9677,.18469823E-3,.5964E-4,0
FLOCK 4BE-9,2024-149AY,2026-05-13T11:06:00.189216,15.39729723,.0003987,97.3792,217.4272,82.0865,278.0833,0,U,60514,999,9697,.24898E-3,.9765E-4,0
FLOCK 4BE-6,2024-149BA,2026-05-13T11:09:30.727872,15.38601570,.0004712,97.3793,216.8510,77.6666,282.5107,0,U,60516,999,9693,.21494E-3,.8112E-4,0
FLOCK 4BE-14,2024-149BB,2026-05-13T11:29:42.634752,15.39899575,.0005509,97.3699,216.9741,74.2797,285.9056,0,U,60517,999,9698,.27906E-3,.11021E-3,0
FLOCK 4BE-1,2024-149BC,2026-05-13T04:55:51.917664,15.41405470,.0005063,97.3781,217.8533,75.2638,284.9169,0,U,60518,999,9698,.23327E-3,.9667E-4,0
FLOCK 4BE-28,2024-149BD,2026-05-13T04:57:22.623840,15.43662518,.00051416,97.3748,218.4723,70.0187,290.1615,0,U,60519,999,9704,.24810273E-3,.11099E-3,0
IPERDRONE.0,2024-149BE,2026-05-13T05:56:46.133952,15.61959680,.0001529,97.3777,224.8724,39.3863,320.7506,0,U,60520,999,9745,.45417E-3,.39554E-3,0
TRANSPORTER-11 OBJECT BF,2024-149BF,2026-05-13T05:56:19.567680,15.72613137,.0000589,97.3783,226.8530,315.6836,44.4381,0,U,60521,999,9757,.64254E-3,.86595E-3,0
CONNECTA IOT-2,2024-149BG,2026-05-13T04:18:35.540928,15.23665884,.00081696,97.3843,211.8637,90.0860,270.1314,0,U,60522,999,9656,.12685402E-3,.2973E-4,0
PTD-R (TYVAK-0127),2024-149BH,2026-05-13T04:54:25.615296,15.87958571,.00014005,97.3772,230.8451,221.6540,138.4625,0,U,60523,999,9785,.46129505E-3,.125547E-2,0
CONNECTA IOT-4,2024-149BJ,2026-05-13T11:27:20.110176,15.40835509,.0006173,97.3801,217.4735,66.3061,293.8832,0,U,60524,999,9698,.2819E-3,.11486E-3,0
ORESAT0.5,2024-149BK,2026-05-13T10:53:35.702880,15.43756176,.0006114,97.3721,218.9600,56.6740,303.5092,0,U,60525,999,9711,.26901E-3,.12083E-3,0
DEIMOS,2024-149BL,2026-05-13T04:59:51.031392,15.42956668,.00063064,97.3781,218.8676,63.1413,297.0479,0,U,60526,999,9705,.2410302E-3,.10528E-3,0
CUAVA-2,2024-149BM,2026-05-13T11:36:00.590688,15.35296630,.0007804,97.3728,214.9664,65.4706,294.7350,0,U,60527,999,9684,.22725E-3,.7715E-4,0
ERNST,2024-149BN,2026-05-13T04:23:11.310720,15.38264328,.00072202,97.3809,216.6668,70.1848,290.0175,0,U,60528,999,9689,.25675787E-3,.9606E-4,0
TORO,2024-149BQ,2026-05-13T04:47:19.060224,14.96287843,.00016014,97.6788,208.5228,96.3722,263.7682,0,U,60530,999,9472,.86426348E-4,.92E-5,0
HYPSO-2,2024-149BR,2026-05-13T11:34:41.924352,14.98610791,.0002329,97.6818,210.2507,110.0646,250.0827,0,U,60531,999,9485,.14436E-3,.1673E-4,0
LEMU NGE,2024-149BS,2026-05-13T10:40:45.551424,14.94804322,.0002548,97.6847,209.1091,112.0214,248.1278,0,U,60532,999,9476,.96811E-4,.997E-5,0
LEMUR-2-STELLA,2024-149BT,2026-05-13T10:56:48.780096,15.11019603,.0001909,97.6734,215.7825,123.3572,236.7840,0,U,60533,999,9525,.39265E-3,.6497E-4,0
SATELIOT_2,2024-149BU,2026-05-13T10:51:53.749152,14.96227877,.000134,97.6833,209.0446,109.4874,250.6492,0,U,60534,999,9477,.55614E-4,.571E-5,0
NIGHTJAR,2024-149BV,2026-05-13T05:04:50.721024,14.98804080,.00013556,97.6836,210.4082,151.1300,208.9998,0,U,60535,999,13763,.14989502E-3,.1748E-4,0
LEMUR-2-MARHISYAM,2024-149BW,2026-05-13T05:24:44.572032,15.10506953,.0001549,97.6878,215.9632,187.9861,172.1344,0,U,60536,999,9520,.3684E-3,.6005E-4,0
SATELIOT_4,2024-149BX,2026-05-13T11:17:49.934112,14.96534973,.0003095,97.6737,208.6134,130.3833,229.7659,0,U,60537,999,9478,.10907E-3,.1183E-4,0
PICO-02A021,2024-149BY,2026-05-13T11:34:33.287808,15.02914671,.0006825,97.6770,212.6235,125.9573,234.2286,0,U,60538,999,9452,.23427E-3,.3085E-4,0
ICEYE-X43,2024-149BZ,2026-05-13T11:13:22.608192,14.99747683,.000453,97.6772,210.9120,197.5457,162.5610,0,U,60539,999,9491,.13389E-3,.1595E-4,0
HAWK-10A,2024-149CA,2026-05-13T04:45:56.913696,14.96398487,.00035608,97.6894,209.7129,167.1449,192.9864,0,U,60540,999,9475,.55990392E-4,.577E-5,0
